[{"OBJECT_NAME":"OBJECT L","OBJECT_ID":"2023-085L","EPOCH":"2026-03-09T23:02:21.999840","MEAN_MOTION":15.29079976,"ECCENTRICITY":0.0005428,"INCLINATION":97.486,"RA_OF_ASC_NODE":178.8598,"ARG_OF_PERICENTER":50.8528,"MEAN_ANOMALY":309.3193,"EPHEMERIS_TYPE":0,"CLASSIFICATION_TYPE":"U","NORAD_CAT_ID":57014,"ELEMENT_SET_NO":999,"REV_AT_EPOCH":15144,"BSTAR":0.00063462603,"MEAN_MOTION_DOT":0.00017871,"MEAN_MOTION_DDOT":0},{"OBJECT_NAME":"STARLINK-36460","OBJECT_ID":"2026-005AE","EPOCH":"2026-03-09T12:09:58.375296","MEAN_MOTION":15.27585471,"ECCENTRICITY":7.19e-5,"INCLINATION":42.9953,"RA_OF_ASC_NODE":239.4247,"ARG_OF_PERICENTER":264.3929,"MEAN_ANOMALY":95.6841,"EPHEMERIS_TYPE":0,"CLASSIFICATION_TYPE":"U","NORAD_CAT_ID":67432,"ELEMENT_SET_NO":999,"REV_AT_EPOCH":865,"BSTAR":0.001372904,"MEAN_MOTION_DOT":0.00037717,"MEAN_MOTION_DDOT":0}]
